OBJECT_NAME,OBJECT_ID,EPOCH,MEAN_MOTION,ECCENTRICITY,INCLINATION,RA_OF_ASC_NODE,ARG_OF_PERICENTER,MEAN_ANOMALY,EPHEMERIS_TYPE,CLASSIFICATION_TYPE,NORAD_CAT_ID,ELEMENT_SET_NO,REV_AT_EPOCH,BSTAR,MEAN_MOTION_DOT,MEAN_MOTION_DDOT
ALOS-2,2014-029A,2026-06-30T20:50:50.445024,14.79474729,.0001598,97.9232,278.8362,87.5110,272.6284,0,U,39766,999,65360,.10488E-3,.732E-5,0
KAZEOSAT 2,2014-033A,2026-07-02T07:38:52.944576,14.85488780,.00069622,97.5394,22.1303,271.1391,88.9028,0,U,40010,999,65120,.12644081E-3,.1041E-4,0
HODOYOSHI-4,2014-033B,2026-07-02T07:08:16.761408,14.88160303,.00219921,97.5450,7.3904,255.1003,104.7779,0,U,40011,999,65105,.67313599E-4,.57E-5,0
DEIMOS-2,2014-033D,2026-07-02T06:07:41.014848,14.93763128,.0000809,97.5805,57.2136,70.3585,289.7723,0,U,40013,999,63997,.13685285E-3,.1396E-4,0
HODOYOSHI-3,2014-033F,2026-07-02T00:07:03.232128,14.85417213,.00315896,97.6433,345.4502,307.4035,52.4306,0,U,40015,999,64982,.1184193E-3,.976E-5,0
SPOT 7,2014-034A,2026-07-02T07:37:19.840800,14.60971205,.0001429,98.0624,245.4192,97.0811,263.0553,0,U,40053,999,63934,.93336656E-4,.412E-5,0
SKYSAT-B,2014-037D,2026-07-02T02:53:15.688608,14.88065412,.00045626,98.3846,142.9372,218.9730,141.1157,0,U,40072,999,64818,.16107667E-3,.1419E-4,0
WORLDVIEW-3 (WV-3),2014-048A,2026-07-02T06:15:02.336544,14.85047184,.00002541,97.8562,257.8851,168.8509,191.2712,0,U,40115,999,64414,.1251035E-3,.1015E-4,0
GAOFEN-2,2014-049A,2026-07-02T07:28:27.909696,14.80913180,.00072081,98.0106,247.5040,173.3203,186.8107,0,U,40118,999,64147,.2451644E-4,.136E-5,0
YAOGAN-21,2014-053A,2026-07-02T07:19:34.367232,15.26604010,.00091951,97.1461,222.8932,49.5470,310.6570,0,U,40143,999,65726,.45370984E-3,.11832E-3,0
YAOGAN-22,2014-063A,2026-07-02T05:51:03.986496,13.15531210,.00066602,100.7744,334.7682,152.5237,207.6227,0,U,40275,999,56179,-.1890278E-4,-.54E-6,0
ASNARO,2014-070A,2026-07-02T05:44:36.443616,15.19657948,.00066247,97.3449,258.9479,122.4233,237.7643,0,U,40298,999,64629,.37517926E-3,.7941E-4,0
YAOGAN-24,2014-072A,2026-07-02T08:00:12.644352,14.76102408,.00136291,98.1511,320.7993,211.7794,148.2594,0,U,40310,999,62595,.56564178E-4,.338E-5,0
CBERS 4,2014-079A,2026-07-02T07:14:45.664224,14.35513055,.00013293,98.3526,239.6590,52.6893,307.4414,0,U,40336,999,60612,.4065746E-4,.75E-6,0
YAOGAN-26,2014-088A,2026-07-02T06:19:12.976032,15.47976405,.00039157,97.0641,183.1245,30.7820,329.3660,0,U,40362,999,64003,.59328858E-3,.30976E-3,0
SMAP,2015-003A,2026-07-02T06:13:30.311904,14.63380140,.00014745,98.1277,190.1404,97.3987,262.7383,0,U,40376,999,60982,.10713114E-3,.507E-5,0
KOMPSAT-3A,2015-014A,2026-07-02T05:48:27.001152,15.54759032,.00571354,97.6885,175.7126,121.0265,239.6617,0,U,40536,999,62415,.41474271E-3,.29585E-3,0
SENTINEL-2A,2015-028A,2026-07-02T07:40:12.467136,14.30819810,.0001225,98.5687,257.9564,96.2659,263.8664,0,U,40697,999,57589,.89492849E-4,.191E-5,0
GAOFEN-8,2015-030A,2026-07-02T07:06:22.025664,15.46504514,.00097152,97.6893,17.5774,135.4350,224.7682,0,U,40701,999,61378,.37169856E-3,.18402E-3,0
CARBONITE 1 (CBNT-1),2015-032D,2026-07-02T06:57:46.927872,14.83630465,.00130087,97.6507,0.7240,242.9774,117.0113,0,U,40718,999,59158,.12668219E-3,.995E-5,0
YAOGAN-27,2015-040A,2026-07-02T05:35:07.188576,13.16073052,.00081396,100.1155,168.9629,174.2113,185.9096,0,U,40878,999,51964,.14243347E-2,.499E-5,0
GAOFEN-9 01,2015-047A,2026-07-02T07:29:52.381248,14.82914470,.00288977,97.6268,218.3195,90.6025,269.8500,0,U,40894,999,58243,.15556708E-3,.122E-4,0
YAOGAN-28,2015-064A,2026-07-02T07:46:46.567776,15.27615775,.00117618,97.3098,321.2799,132.9610,227.2618,0,U,41026,999,59299,.30604206E-3,.8207E-4,0
YAOGAN-29,2015-069A,2026-07-02T06:58:28.200288,14.83096419,.00017497,98.0017,211.9468,29.7431,330.3881,0,U,41038,999,57286,.49287481E-4,.347E-5,0
KENT RIDGE 1,2015-077B,2026-07-01T23:06:29.138400,15.23218381,.00081548,14.9782,156.0909,87.7044,272.4212,0,U,41167,999,58335,.14661103E-3,.4343E-4,0
GAOFEN-4,2015-083A,2026-07-01T14:31:54.862176,1.00268667,.00042432,0.3936,83.8387,111.7154,47.7566,0,U,41194,999,3867,0,-.324E-5,0
JASON-3,2016-002A,2026-07-02T05:25:31.534752,12.87623269,.00083199,66.0416,94.2189,271.9302,88.0764,0,U,41240,999,48918,.12441476E-3,-.31E-6,0
SENTINEL-3A,2016-011A,2026-07-02T07:04:04.354176,14.26736918,.00014311,98.6244,250.4608,94.5744,265.5600,0,U,41335,999,54021,.7597336E-4,.14E-5,0
ZIYUAN 3-02 (ZY 3-02),2016-033A,2026-07-02T07:38:27.873024,15.21324604,.00128392,97.3832,258.8016,231.9765,128.0313,0,U,41556,999,56028,.26650415E-3,.591E-4,0
CARTOSAT-2C,2016-040A,2026-07-02T06:36:11.988864,15.19308301,.00105264,97.4475,243.0455,86.3995,273.8443,0,U,41599,999,55600,.13502972E-3,.2786E-4,0
