ALOS-2                  
1 39766U 14029A   26181.86863941  .00000732  00000+0  10488-3 0  9995
2 39766  97.9232 278.8362 0001598  87.5110 272.6284 14.79474729653601
KAZEOSAT 2              
1 40010U 14033A   26183.31866834  .00001041  00000+0  12644-3 0  9990
2 40010  97.5394  22.1303 0006962 271.1391  88.9028 14.85488780651204
HODOYOSHI-4             
1 40011U 14033B   26183.29741622  .00000570  00000+0  67314-4 0  9996
2 40011  97.5450   7.3904 0021992 255.1003 104.7779 14.88160303651056
DEIMOS-2                
1 40013U 14033D   26183.25533582  .00001396  00000+0  13685-3 0  9996
2 40013  97.5805  57.2136 0000809  70.3585 289.7723 14.93763128639979
HODOYOSHI-3             
1 40015U 14033F   26183.00489852  .00000976  00000+0  11842-3 0  9997
2 40015  97.6433 345.4502 0031589 307.4035  52.4306 14.85417213649820
SPOT 7                  
1 40053U 14034A   26183.31759075  .00000412  00000+0  93337-4 0  9996
2 40053  98.0624 245.4192 0001429  97.0811 263.0553 14.60971205639346
SKYSAT-B                
1 40072U 14037D   26183.12032047  .00001419  00000+0  16108-3 0  9990
2 40072  98.3846 142.9372 0004562 218.9730 141.1157 14.88065412648184
WORLDVIEW-3 (WV-3)      
1 40115U 14048A   26183.26044371  .00001015  00000+0  12510-3 0  9993
2 40115  97.8562 257.8851 0000254 168.8509 191.2712 14.85047184644148
GAOFEN-2                
1 40118U 14049A   26183.31143414  .00000136  00000+0  24516-4 0  9994
2 40118  98.0106 247.5040 0007208 173.3203 186.8107 14.80913180641476
YAOGAN-21               
1 40143U 14053A   26183.30525888  .00011832  00000+0  45371-3 0  9991
2 40143  97.1461 222.8932 0009195  49.5470 310.6570 15.26604010657266
YAOGAN-22               
1 40275U 14063A   26183.24379614 -.00000054  00000+0 -18903-4 0  9993
2 40275 100.7744 334.7682 0006660 152.5237 207.6227 13.15531210561795
ASNARO                  
1 40298U 14070A   26183.23931069  .00007941  00000+0  37518-3 0  9995
2 40298  97.3449 258.9479 0006624 122.4233 237.7643 15.19657948646294
YAOGAN-24               
1 40310U 14072A   26183.33347968  .00000338  00000+0  56564-4 0  9998
2 40310  98.1511 320.7993 0013629 211.7794 148.2594 14.76102408625953
CBERS 4                 
1 40336U 14079A   26183.30191741  .00000075  00000+0  40657-4 0  9990
2 40336  98.3526 239.6590 0001329  52.6893 307.4414 14.35513055606123
YAOGAN-26               
1 40362U 14088A   26183.26334463  .00030976  00000+0  59329-3 0  9992
2 40362  97.0641 183.1245 0003915  30.7820 329.3660 15.47976405640036
SMAP                    
1 40376U 15003A   26183.25937861  .00000507  00000+0  10713-3 0  9996
2 40376  98.1277 190.1404 0001474  97.3987 262.7383 14.63380140609820
KOMPSAT-3A              
1 40536U 15014A   26183.24197918  .00029585  00000+0  41474-3 0  9991
2 40536  97.6885 175.7126 0057135 121.0265 239.6617 15.54759032624153
SENTINEL-2A             
1 40697U 15028A   26183.31958874  .00000191  00000+0  89493-4 0  9994
2 40697  98.5687 257.9564 0001225  96.2659 263.8664 14.30819810575890
GAOFEN-8                
1 40701U 15030A   26183.29608826  .00018402  00000+0  37170-3 0  9997
2 40701  97.6893  17.5774 0009715 135.4350 224.7682 15.46504514613781
CARBONITE 1 (CBNT-1)    
1 40718U 15032D   26183.29012648  .00000995  00000+0  12668-3 0  9991
2 40718  97.6507   0.7240 0013008 242.9774 117.0113 14.83630465591588
YAOGAN-27               
1 40878U 15040A   26183.23272209  .00000499  00000+0  14243-2 0  9991
2 40878 100.1155 168.9629 0008139 174.2113 185.9096 13.16073052519644
GAOFEN-9 01             
1 40894U 15047A   26183.31241182  .00001220  00000+0  15557-3 0  9994
2 40894  97.6268 218.3195 0028897  90.6025 269.8500 14.82914470582432
YAOGAN-28               
1 41026U 15064A   26183.32415009  .00008207  00000+0  30604-3 0  9995
2 41026  97.3098 321.2799 0011761 132.9610 227.2618 15.27615775592990
YAOGAN-29               
1 41038U 15069A   26183.29060417  .00000347  00000+0  49287-4 0  9993
2 41038  98.0017 211.9468 0001749  29.7431 330.3881 14.83096419572860
KENT RIDGE 1            
1 41167U 15077B   26182.96283725  .00004343  00000+0  14661-3 0  9994
2 41167  14.9782 156.0909 0008154  87.7044 272.4212 15.23218381583358
GAOFEN-4                
1 41194U 15083A   26182.60549609 -.00000324  00000+0  00000+0 0  9992
2 41194   0.3936  83.8387 0004243 111.7154  47.7566  1.00268667 38677
JASON-3                 
1 41240U 16002A   26183.22605943 -.00000031  00000+0  12441-3 0  9990
2 41240  66.0416  94.2189 0008319 271.9302  88.0764 12.87623269489183
SENTINEL-3A             
1 41335U 16011A   26183.29449484  .00000140  00000+0  75973-4 0  9998
2 41335  98.6244 250.4608 0001431  94.5744 265.5600 14.26736918540211
ZIYUAN 3-02 (ZY 3-02)   
1 41556U 16033A   26183.31837816  .00005910  00000+0  26650-3 0  9997
2 41556  97.3832 258.8016 0012839 231.9765 128.0313 15.21324604560288
CARTOSAT-2C             
1 41599U 16040A   26183.27513876  .00002786  00000+0  13503-3 0  9995
2 41599  97.4475 243.0455 0010526  86.3995 273.8443 15.19308301556001
